430P/Scotti,e,4.4760,54.6382,94.4785,3.102677,0.1803429,0.50045973,267.5911,12/26.0/2025,2000,g 16.5,4.0
# From MPEC 2025-W75
431P/Scotti,e,22.3747,202.8304,200.0132,3.477463,0.1519884,0.47714025,214.5504,12/26.0/2025,2000,g 14.0,4.0
# From MPEC 2025-W75
432P/PANSTARRS,e,10.0670,239.1309,105.2336,3.038799,0.1860592,0.24073490,294.0655,12/26.0/2025,2000,g 17.0,4.0
# From MPEC 2025-W75
434P/Tenagra,e,6.3365,288.9095,128.4779,4.136892,0.1171366,0.27405780,178.1671,12/26.0/2025,2000,g 13.0,4.0
# From MPEC 2025-W75
435P/PANSTARRS,e,18.8746,98.5236,244.1806,3.022095,0.1876039,0.31747022,302.8511,12/26.0/2025,2000,g 17.0,4.0
# From MPEC 2025-W75
436P/Garradd,e,20.1994,87.1581,282.7678,5.937058,0.0681314,0.66878356,100.8144,12/26.0/2025,2000,g 14.5,4.0
# From MPEC 2025-W75
437P/Lemmon-PANSTARRS,e,3.6886,245.8422,207.1254,4.570282,0.1008764,0.25493554,123.4189,12/26.0/2025,2000,g 13.0,4.0
# From MPEC 2025-W75
438P/Christensen,e,8.2806,260.1095,58.9526,3.853531,0.1302914,0.41408679,272.9575,12/26.0/2025,2000,g 14.5,4.0
# From MPEC 2025-W75
439P/LINEAR,e,7.1120,56.4014,342.1426,3.492217,0.1510262,0.46888908,239.0370,12/26.0/2025,2000,g 13.5,4.0
# From MPEC 2025-W75
440P/Kobayashi,e,12.3549,328.7912,183.3148,8.581492,0.0392067,0.76100910,53.5691,12/26.0/2025,2000,g 15.5,4.0
# From MPEC 2025-W75
441P/PANSTARRS,e,2.5746,143.5867,178.8449,4.131096,0.1173833,0.19442817,12.6469,12/26.0/2025,2000,g 13.5,4.0
# From MPEC 2025-W75
442P/McNaught,e,6.0584,31.8927,310.6081,4.950786,0.0894732,0.53270159,109.7669,12/26.0/2025,2000,g 13.5,4.0
# From MPEC 2025-W75
443P/PANSTARRS-Christensen,e,19.8881,108.9325,145.0344,4.124293,0.1176738,0.28281354,138.1579,12/26.0/2025,2000,g 13.5,4.0
# From MPEC 2025-W75
444P/WISE-PANSTARRS,e,22.6866,88.1971,172.7905,3.479199,0.1518746,0.55484913,194.2392,12/26.0/2025,2000,g 17.0,4.0
# From MPEC 2025-W75
445P/Lemmon-PANSTARRS,e,1.0892,126.5959,213.0968,4.044082,0.1211920,0.41452908,148.8347,12/26.0/2025,2000,g 15.0,4.0
# From MPEC 2025-W75
446P/McNaught,e,16.6461,336.2991,344.5988,4.557258,0.1013091,0.64696978,132.4984,12/26.0/2025,2000,g 16.5,4.0
# From MPEC 2025-W75
447P/Sheppard-Tholen,e,7.4418,302.6389,97.3648,5.623003,0.0739182,0.17695179,90.8772,12/26.0/2025,2000,g 12.0,4.0
# From MPEC 2025-W75
448P/PANSTARRS,e,12.1429,161.7487,218.8066,3.637005,0.1420981,0.41790550,171.5418,12/26.0/2025,2000,g 16.0,4.0
# From MPEC 2025-W75
449P/Leonard,e,15.4681,242.5175,176.7814,3.599577,0.1443201,0.47968810,267.8865,12/26.0/2025,2000,g 16.0,4.0
# From MPEC 2025-YF1
450P/LONEOS,e,10.9048,123.8883,26.3741,7.850053,0.0448121,0.31149203,340.7702,12/26.0/2025,2000,g  6.5,4.0
# From MPEC 2025-W75
451P/Christensen,e,26.4874,300.8623,186.8241,6.352353,0.0615605,0.55930207,69.1846,12/26.0/2025,2000,g 13.5,4.0
# From MPEC 2025-W75
452P/Sheppard-Jewitt,e,6.4224,123.6602,37.1284,7.314143,0.0498263,0.42877970,48.5659,12/26.0/2025,2000,g  9.0,4.0
# From MPEC 2025-W75
453P/WISE-Lemmon,e,27.0535,42.8850,70.9265,5.468924,0.0770639,0.58317215,79.2615,12/26.0/2025,2000,g 14.0,4.0
# From MPEC 2025-W75
454P/PANSTARRS,e,19.8060,54.5867,20.2279,4.212390,0.1140017,0.36125564,142.3111,12/26.0/2025,2000,g 14.0,4.0
# From MPEC 2025-W75
455P/PANSTARRS,e,14.1337,146.1749,237.5360,3.153880,0.1759691,0.30422562,182.1913,12/26.0/2025,2000,g 17.0,4.0
# From MPEC 2025-W75
456P/PANSTARRS,e,16.9649,243.1376,232.9752,3.168591,0.1747450,0.11561161,44.6052,12/26.0/2025,2000,g 13.5,4.0
# From MPEC 2025-W75
457P/Lemmon-PANSTARRS,e,5.2258,175.9636,104.2934,2.645030,0.2291175,0.11829049,112.9689,12/26.0/2025,2000,g 15.5,4.0
# From MPEC 2025-W75
458P/Jahn,e,13.6217,1.5466,104.9778,3.859660,0.1299812,0.31723666,149.7393,12/26.0/2025,2000,g 14.0,4.0
# From MPEC 2025-W75
459P/Catalina,e,7.1729,256.9852,205.2394,3.240517,0.1689595,0.57786388,175.4058,12/26.0/2025,2000,g 15.5,4.0
# From MPEC 2025-W75
460P/PANSTARRS,e,18.9004,180.5175,351.9303,3.027604,0.1870921,0.66430051,309.5606,12/26.0/2025,2000,g 21.0,4.0
# From MPEC 2025-W75
461P/WISE,e,18.3951,194.3718,174.8247,3.144769,0.1767344,0.56941858,272.8485,12/26.0/2025,2000,g 18.5,4.0
# From MPEC 2025-W75
462P/LONEOS-PANSTARRS,e,7.0594,322.6209,4.1313,4.856301,0.0920970,0.57884925,114.5201,12/26.0/2025,2000,g 17.0,4.0
# From MPEC 2025-W75
463P/NEOWISE,e,29.2951,283.2165,216.3452,2.973961,0.1921769,0.82599957,192.5532,12/26.0/2025,2000,g 18.0,4.0
# From MPEC 2025-W75
464P/PANSTARRS,e,21.6738,309.5786,267.4827,4.682947,0.0972580,0.28075294,100.4384,12/26.0/2025,2000,g 10.5,4.0
# From MPEC 2025-W75
465P/Hill,e,25.8621,217.9285,140.9608,6.003260,0.0670075,0.61295369,64.4886,12/26.0/2025,2000,g 12.5,4.0
# From MPEC 2025-W75
466P/PANSTARRS,e,16.0152,115.2585,197.4444,3.942424,0.1259097,0.48957610,121.8621,12/26.0/2025,2000,g 14.0,4.0
# From MPEC 2025-W75
467P/LINEAR-Grauer,e,2.4794,43.2619,267.1629,5.824011,0.0701247,0.05422375,79.2176,12/26.0/2025,2000,g  9.0,4.0
# From MPEC 2025-W75
468P/SidingSpring,e,50.4557,356.1308,322.5511,7.113987,0.0519439,0.44471170,39.7965,12/26.0/2025,2000,g 11.5,4.0
# From MPEC 2025-W75
469P/PANSTARRS,e,20.1707,178.9649,43.4926,4.343799,0.1088678,0.30820754,1.9178,12/26.0/2025,2000,g 13.5,4.0
# From MPEC 2025-W75
470P/PANSTARRS,e,8.8439,246.1602,151.6431,4.461671,0.1045822,0.38922493,77.4486,12/26.0/2025,2000,g 15.5,4.0
# From MPEC 2025-W75
471P/LINEAR-Lemmon,e,4.7969,283.3120,94.7225,5.687451,0.0726654,0.62755634,53.5817,12/26.0/2025,2000,g 12.0,4.0
# From MPEC 2025-W75
472P/NEAT-LINEAR,e,10.8269,205.8041,218.7974,7.762106,0.0455758,0.56375297,24.1730,12/26.0/2025,2000,g 10.5,4.0
# From MPEC 2025-W75
473P/NEAT,e,56.8831,22.1915,42.9480,7.973797,0.0437730,0.82356356,29.2751,12/26.0/2025,2000,g 13.5,4.0
# From MPEC 2025-W75
474P/Hogan,e,1.0968,26.7524,11.2700,3.130968,0.1779041,0.18787058,159.1361,12/26.0/2025,2000,g 15.5,4.0
# From MPEC 2025-W75
475P/Spacewatch-LINEAR,e,14.5241,147.3518,40.4289,7.321103,0.0497553,0.44306623,28.4699,12/26.0/2025,2000,g 11.0,4.0
# From MPEC 2025-W75
476P/PANSTARRS,e,19.0053,57.0490,46.7501,4.774860,0.0944633,0.34578827,41.1368,12/26.0/2025,2000,g 12.5,4.0
# From MPEC 2025-W75
477P/PANSTARRS,e,8.9139,59.1389,305.8538,3.001478,0.1895402,0.41758357,138.4727,12/26.0/2025,2000,g 14.5,4.0
# From MPEC 2025-W75
478P/ATLAS,e,12.5253,127.2586,13.2751,3.648666,0.1414174,0.34381896,85.2341,12/26.0/2025,2000,g 13.5,4.0
# From MPEC 2025-W75
479P/Elenin,e,15.3991,295.8304,263.4955,5.622682,0.0739246,0.77899865,44.3310,12/26.0/2025,2000,g 15.0,4.0
# From MPEC 2025-W75
480P/PANSTARRS,e,13.7152,229.9850,214.4772,4.612076,0.0995083,0.24620446,97.2211,12/26.0/2025,2000,g 12.0,4.0
# From MPEC 2025-W75
481P/Lemmon-PANSTARRS,e,6.0826,93.5503,356.8519,4.683046,0.0972549,0.34338276,87.5851,12/26.0/2025,2000,g 13.5,4.0
# From MPEC 2025-W75
482P/PANSTARRS,e,24.4893,126.0713,339.7505,3.757428,0.1353219,0.49233330,126.8969,12/26.0/2025,2000,g 13.5,4.0
# From MPEC 2025-W75
483P/PANSTARRS,e,14.1737,198.9623,49.6386,3.194943,0.1725875,0.22162847,241.5211,12/26.0/2025,2000,g 16.5,4.0
# From MPC186638
483P-A/PANSTARRS,e,14.1737,198.9624,49.6388,3.194943,0.1725875,0.22162886,241.5207,12/26.0/2025,2000,g 13.5,4.0
# From MPC185666
483P-B/PANSTARRS,e,14.1745,198.9617,49.6296,3.194860,0.1725942,0.22157194,241.5568,12/26.0/2025,2000,g 17.0,4.0
# From MPEC 2025-W75
484P/Spacewatch,e,14.4742,265.3674,240.8356,3.756115,0.1353929,0.43314771,250.9386,12/26.0/2025,2000,g 16.0,4.0
# From MPEC 2025-W75
485P/Sheppard-Tholen,e,10.0159,261.6455,196.1513,6.853136,0.0549376,0.41715314,46.8906,12/26.0/2025,2000,g 13.0,4.0
# From MPEC 2025-YF1
486P/Leonard,e,2.2097,219.0232,93.9352,3.626871,0.1426941,0.36337905,37.9843,12/26.0/2025,2000,g 14.5,4.0
# From MPEC 2025-W75
487P/SidingSpring,e,39.3662,49.2005,0.8380,5.160313,0.0840795,0.64831580,36.2767,12/26.0/2025,2000,g 13.5,4.0
# From MPEC 2025-W75
488P/NEAT-PANSTARRS,e,11.4628,323.4786,2.5130,3.756512,0.1353714,0.55167902,79.1191,12/26.0/2025,2000,g 16.5,4.0
# From MPEC 2024-Q14
489P/Denning,e,4.0259,20.5981,109.4190,4.425047,0.1058832,0.64715671,2.2972,12/26.0/2025,2000,g 15.5,4.0
# From MPEC 2025-W75
490P/ATLAS,e,12.2678,307.5845,332.5912,3.030787,0.1867974,0.64689424,84.7910,12/26.0/2025,2000,g 21.0,4.0
# From MPEC 2025-W75
491P/Spacewatch-PANSTARRS,e,9.3670,311.6835,298.8383,5.012676,0.0878213,0.25870199,41.8248,12/26.0/2025,2000,g  9.5,4.0
# From MPEC 2025-W75
492P/LINEAR,e,11.4010,11.3050,40.9803,5.757933,0.0713352,0.69048631,37.3523,12/26.0/2025,2000,g 15.0,4.0
# From MPEC 2025-YF1
493P/LONEOS,e,24.1077,1.0820,83.2304,7.177228,0.0512589,0.46734805,359.0207,12/26.0/2025,2000,g 12.0,2.0
# From MPEC 2025-W75
494P/PANSTARRS,e,7.7898,245.0437,48.8864,3.794348,0.1333516,0.35665685,76.5542,12/26.0/2025,2000,g 16.0,4.0
# From MPEC 2025-W75
495P/Christensen,e,26.3571,291.6125,141.3330,4.763222,0.0948097,0.27363985,6.1330,12/26.0/2025,2000,g 11.5,4.0
# From MPEC 2025-W75
496P/Hill,e,14.8141,63.5872,42.2535,6.099482,0.0654281,0.73420114,19.0213,12/26.0/2025,2000,g 14.0,4.0
# From MPEC 2025-W75
497P/Spacewatch-PANSTARRS,e,10.4372,40.3593,32.3847,5.610057,0.0741743,0.63017792,23.2739,12/26.0/2025,2000,g 17.5,4.0
# From MPEC 2025-W75
498P/LINEAR,e,14.4827,279.2302,179.0936,4.593081,0.1001262,0.57226100,37.2551,12/26.0/2025,2000,g 14.7,4.0
# From MPEC 2025-W75
499P/Catalina,e,24.5836,139.3039,2.5690,3.018188,0.1879683,0.69150063,55.7504,12/26.0/2025,2000,g 18.5,4.0
# From MPEC 2025-W75
500P/PANSTARRS,e,2.3015,111.5262,46.7110,3.416465,0.1560769,0.37597154,41.9841,12/26.0/2025,2000,g 16.0,4.0
# From MPEC 2025-W75
501P/Rankin,e,10.0475,139.7841,53.6848,2.227842,0.2963996,0.69857978,183.9636,12/26.0/2025,2000,g 21.5,4.0
# From MPEC 2025-XC7
502P/NEAT,e,11.3992,264.4823,37.7239,7.995012,0.0435989,0.47099127,6.2373,12/26.0/2025,2000,g  8.5,4.0
# From MPEC 2025-W75
503P/PANSTARRS,e,10.5747,268.5816,17.9417,3.658026,0.1408750,0.48131505,7.1078,12/26.0/2025,2000,g 15.0,4.0
# From MPEC 2025-W75
504P/WISE-PANSTARRS,e,8.8062,221.1193,308.5409,3.745181,0.1359862,0.40612602,35.4814,12/26.0/2025,2000,g 14.3,4.0
# From MPEC 2025-W75
